SMDC ONE 1.2            
1 38759U 12048B   26068.59359052  .00013943  00000+0  57078-3 0  9996
2 38759  64.6579 143.2061 0110458 207.1808 152.3511 15.19069434101016
STARLINK-6051           
1 56463U 23064R   26068.62251617 -.00000185  00000+0 -77445-5 0  9998
2 56463  70.0006 144.7164 0003224 268.7718  91.3071 14.98332799155238
